NORAD_CAT_ID,OBJECT_NAME,OBJECT_TYPE,EPOCH,MEAN_MOTION,ECCENTRICITY,INCLINATION,RA_OF_ASC_NODE,ARG_OF_PERICENTER,MEAN_ANOMALY,BSTAR,MEAN_MOTION_DOT,MEAN_MOTION_DDOT,TLE_LINE0,TLE_LINE1,TLE_LINE2,SEMIMAJOR_AXIS,PERIOD,APOGEE,PERIGEE,DECAYED
54063.0,STARLINK-5225,PAYLOAD,2022-12-22 15:15:22,15.08822365,0.0001868,53.2169,210.09,46.7506,313.3642,-5.2847e-06,-3.72e-06,0.0,0 STARLINK-5225,1 54063U 22136N   22356.63567255 -.00000372  00000-0 -52847-5 0  9994,2 54063  53.2169 210.0900 0001868  46.7506 313.3642 15.08822365  9752,6917.934,95.439,541.092,538.507,0.0
54063.0,STARLINK-5225,PAYLOAD,2022-12-23 07:09:14,15.08819109,0.0001872,53.2168,207.1165,47.158,312.9569,-4.9522000000000015e-06,-3.67e-06,0.0,0 STARLINK-5225,1 54063U 22136N   22357.29808282 -.00000367  00000-0 -49522-5 0  9995,2 54063  53.2168 207.1165 0001872  47.1580 312.9569 15.08819109  9859,6917.944,95.439,541.104,538.514,0.0
54063.0,STARLINK-5225,PAYLOAD,2022-12-23 16:41:33,15.08817336,0.0001849,53.2165,205.3318,46.5423,313.5723,5.9455e-05,6.58e-06,0.0,0 STARLINK-5225,1 54063U 22136N   22357.69552684  .00000658  00000-0  59455-4 0  9997,2 54063  53.2165 205.3318 0001849  46.5423 313.5723 15.08817336  9915,6917.95,95.439,541.094,538.536,0.0
54063.0,STARLINK-5225,PAYLOAD,2022-12-23 23:03:06,15.08820798,0.000191,53.2163,204.1425,46.8819,313.2332,9.1777e-05,1.172e-05,0.0,0 STARLINK-5225,1 54063U 22136N   22357.96048735  .00001172  00000-0  91777-4 0  9999,2 54063  53.2163 204.1425 0001910  46.8819 313.2332 15.08820798 10438,6917.939,95.439,541.125,538.4830000000002,0.0
54063.0,STARLINK-5225,PAYLOAD,2022-12-24 07:00:01,15.08825122,0.0001903,53.2164,202.656,47.9708,312.1446,8.6642e-05,1.091e-05,0.0,0 STARLINK-5225,1 54063U 22136N   22358.29168832  .00001091  00000-0  86642-4 0  9992,2 54063  53.2164 202.6560 0001903  47.9708 312.1446 15.08825122 10006,6917.926,95.438,541.107,538.474,0.0
54063.0,STARLINK-5225,PAYLOAD,2022-12-24 21:18:30,15.0883057,0.0001969,53.2163,199.9793,49.5701,310.5463,9.662e-05,1.25e-05,0.0,0 STARLINK-5225,1 54063U 22136N   22358.88784904  .00001250  00000-0  96620-4 0  9995,2 54063  53.2163 199.9793 0001969  49.5701 310.5463 15.08830570 10570,6917.909000000002,95.438,541.136,538.4119999999998,0.0
54063.0,STARLINK-5225,PAYLOAD,2022-12-25 06:50:48,15.08833662,0.0001996,53.2165,198.1954,50.1358,309.9809,0.0001200999999999,1.623e-05,0.0,0 STARLINK-5225,1 54063U 22136N   22359.28528831  .00001623  00000-0  12010-3 0  9999,2 54063  53.2165 198.1954 0001996  50.1358 309.9809 15.08833662 10153,6917.9,95.438,541.146,538.384,0.0
54063.0,STARLINK-5225,PAYLOAD,2022-12-25 19:33:53,15.08838299,0.0002019,53.2164,195.8166,51.326,308.7912,0.00011127,1.483e-05,0.0,0 STARLINK-5225,1 54063U 22136N   22359.81520696  .00001483  00000-0  11127-3 0  9991,2 54063  53.2164 195.8166 0002019  51.3260 308.7912 15.08838299 10235,6917.886,95.438,541.1469999999998,538.354,0.0
54063.0,STARLINK-5225,PAYLOAD,2022-12-26 06:41:35,15.08843313,0.0002041,53.2165,193.735,51.7454,308.3721,0.00010022,1.307e-05,0.0,0 STARLINK-5225,1 54063U 22136N   22360.27888380  .00001307  00000-0  10022-3 0  9998,2 54063  53.2165 193.7350 0002041  51.7454 308.3721 15.08843313 10307,6917.87,95.437,541.1469999999998,538.323,0.0
54063.0,STARLINK-5225,PAYLOAD,2022-12-26 22:35:26,15.08850156,0.0002076,53.2164,190.7613,52.4433,307.6748,8.4311e-05,1.054e-05,0.0,0 STARLINK-5225,1 54063U 22136N   22360.94127681  .00001054  00000-0  84311-4 0  9994,2 54063  53.2164 190.7613 0002076  52.4433 307.6748 15.08850156 10885,6917.849,95.437,541.15,538.278,0.0
54063.0,STARLINK-5225,PAYLOAD,2022-12-27 12:53:53,15.08855548,0.0002068,53.2161,188.0845,54.2548,305.8636,9.6042e-05,1.241e-05,0.0,0 STARLINK-5225,1 54063U 22136N   22361.53742764  .00001241  00000-0  96042-4 0  9997,2 54063  53.2161 188.0845 0002068  54.2548 305.8636 15.08855548 10490,6917.833000000001,95.437,541.128,538.2669999999998,0.0
54063.0,STARLINK-5225,PAYLOAD,2022-12-28 12:44:40,15.08849451,0.0001995,53.2163,183.6237,55.3273,304.7907,-1.8645e-05,-5.85e-06,0.0,0 STARLINK-5225,1 54063U 22136N   22362.53102775 -.00000585  00000-0 -18645-4 0  9995,2 54063  53.2163 183.6237 0001995  55.3273 304.7907 15.08849451 10645,6917.852,95.437,541.097,538.336,0.0
54063.0,STARLINK-5225,PAYLOAD,2022-12-29 04:38:32,15.08841956,0.0003003999999999,53.2193,180.646,50.7982,309.3277,-0.00013865,-2.495e-05,0.0,0 STARLINK-5225,1 54063U 22136N   22363.19343163 -.00002495  00000-0 -13865-3 0  9996,2 54063  53.2193 180.6460 0003004  50.7982 309.3277 15.08841956 11220,6917.874,95.437,541.818,537.661,0.0
54063.0,STARLINK-5225,PAYLOAD,2022-12-29 12:35:28,15.08838359,0.0001769,53.2149,179.1646,54.5458,305.5699,-9.0669e-05,-1.731e-05,0.0,0 STARLINK-5225,1 54063U 22136N   22363.52463156 -.00001731  00000-0 -90669-4 0  9998,2 54063  53.2149 179.1646 0001769  54.5458 305.5699 15.08838359 10796,6917.885,95.438,540.974,538.5269999999998,0.0
54063.0,STARLINK-5225,PAYLOAD,2022-12-30 10:50:52,15.08834025,0.0002077,53.2165,175.0009,56.499,303.62,-4.6539e-05,-1.029e-05,0.0,0 STARLINK-5225,1 54063U 22136N   22364.45199483 -.00001029  00000-0 -46539-4 0  9997,2 54063  53.2165 175.0009 0002077  56.4990 303.6200 15.08834025 11410,6917.899,95.438,541.2,538.327,0.0
54063.0,STARLINK-5225,PAYLOAD,2022-12-31 04:20:06,15.08841538,0.0002091,53.2166,171.7298,55.9603,304.1587,-4.355199999999999e-06,-3.58e-06,0.0,0 STARLINK-5225,1 54063U 22136N   22365.18063046 -.00000358  00000-0 -43552-5 0  9990,2 54063  53.2166 171.7298 0002091  55.9603 304.1587 15.08841538 11528,6917.876,95.437,541.187,538.294,0.0
54063.0,STARLINK-5225,PAYLOAD,2022-12-31 20:13:57,15.08844289,0.0002075,53.2164,168.7557,54.7437,305.3749,0.00011435,1.532e-05,0.0,0 STARLINK-5225,1 54063U 22136N   22365.84302514  .00001532  00000-0  11435-3 0  9995,2 54063  53.2164 168.7557 0002075  54.7437 305.3749 15.08844289 11141,6917.8669999999975,95.437,541.168,538.297,0.0
54063.0,STARLINK-5225,PAYLOAD,2023-01-01 04:10:53,15.08833944,0.0002082,53.2167,167.2694,57.3588,302.7605,3.9574e-05,3.42e-06,0.0,0 STARLINK-5225,1 54063U 22136N   23001.17423480  .00000342  00000-0  39574-4 0  9998,2 54063  53.2167 167.2694 0002082  57.3588 302.7605 15.08833944 11670,6917.899,95.438,541.2040000000002,538.3240000000002,0.0
54063.0,STARLINK-5225,PAYLOAD,2023-01-01 16:54:00,15.08825213,0.0001934,53.2162,164.8893,56.2585,303.8591,-5.5885e-05,-1.177e-05,0.0,0 STARLINK-5225,1 54063U 22136N   23001.70416693 -.00001177  00000-0 -55885-4 0  9997,2 54063  53.2162 164.8893 0001934  56.2585 303.8591 15.08825213 11271,6917.926,95.438,541.129,538.453,0.0
54063.0,STARLINK-5225,PAYLOAD,2023-01-01 18:29:23,15.08825489,0.0001918,53.2165,164.5921,56.5916,303.526,-3.9275e-05,-9.13e-06,0.0,0 STARLINK-5225,1 54063U 22136N   23001.77040668 -.00000913  00000-0 -39275-4 0  9991,2 54063  53.2165 164.5921 0001918  56.5916 303.5260 15.08825489 11765,6917.925,95.438,541.117,538.4630000000002,0.0
54063.0,STARLINK-5225,PAYLOAD,2023-01-02 04:01:41,15.08832903,0.0001963,53.217,162.8086,58.834,301.2844,-1.0126e-05,-4.49e-06,0.0,0 STARLINK-5225,1 54063U 22136N   23002.16784351 -.00000449  00000-0 -10126-4 0  9997,2 54063  53.2170 162.8086 0001963  58.8340 301.2844 15.08832903 11829,6917.901999999999,95.438,541.125,538.409,0.0
54063.0,STARLINK-5225,PAYLOAD,2023-01-02 13:34:00,15.08840009,0.0001991,53.217,161.0248,58.6188,301.4999,-8.1585e-06,-4.18e-06,0.0,0 STARLINK-5225,1 54063U 22136N   23002.56527985 -.00000418  00000-0 -81585-5 0  9993,2 54063  53.2170 161.0248 0001991  58.6188 301.4999 15.08840009 11402,6917.88,95.438,541.123,538.368,0.0
54063.0,STARLINK-5225,PAYLOAD,2023-01-02 19:55:32,15.08844864,0.0001889999999999,53.2169,159.8351,60.74800000000001,299.3701,-2.3302e-05,-6.59e-06,0.0,0 STARLINK-5225,1 54063U 22136N   23002.83023711 -.00000659  00000-0 -23302-4 0  9990,2 54063  53.2169 159.8351 0001890  60.7480 299.3701 15.08844864 11923,6917.866,95.437,541.038,538.423,0.0
54063.0,STARLINK-5225,PAYLOAD,2023-01-03 10:14:01,15.08830826,0.0001934,53.217,157.1592,60.2072,299.9112,0.00011951,1.614e-05,0.0,0 STARLINK-5225,1 54063U 22136N   23003.42640265  .00001614  00000-0  11951-3 0  9991,2 54063  53.2170 157.1592 0001934  60.2072 299.9112 15.08830826 12010,6917.908,95.438,541.111,538.436,0.0
54063.0,STARLINK-5225,PAYLOAD,2023-01-03 16:35:33,15.08834168,0.0001939,53.217,155.9699,60.6052,299.5134,0.00013684,1.89e-05,0.0,0 STARLINK-5225,1 54063U 22136N   23003.69136093  .00001890  00000-0  13684-3 0  9990,2 54063  53.2170 155.9699 0001939  60.6052 299.5134 15.08834168 11574,6917.898,95.438,541.105,538.422,0.0
54063.0,STARLINK-5225,PAYLOAD,2023-01-04 16:26:20,15.08842498,0.0001979,53.2172,151.5091,64.0122,296.1074,5.3799e-05,5.68e-06,0.0,0 STARLINK-5225,1 54063U 22136N   23004.68495894  .00000568  00000-0  53799-4 0  9990,2 54063  53.2172 151.5091 0001979  64.0122 296.1074 15.08842498 12206,6917.873000000001,95.437,541.107,538.369,0.0
54063.0,STARLINK-5225,PAYLOAD,2023-01-04 19:37:06,15.08847502,0.0001933,53.2173,150.9143,64.7291,295.3901,7.4493e-05,8.98e-06,0.0,0 STARLINK-5225,1 54063U 22136N   23004.81743493  .00000898  00000-0  74493-4 0  9996,2 54063  53.2173 150.9143 0001933  64.7291 295.3901 15.08847502 11741,6917.857,95.437,541.06,538.385,0.0
54063.0,STARLINK-5225,PAYLOAD,2023-01-05 09:55:35,15.08835033,0.0001652,53.218,148.2378,63.8103,296.3059,-3.1186e-05,-7.84e-06,0.0,0 STARLINK-5225,1 54063U 22136N   23005.41360598 -.00000784  00000-0 -31186-4 0  9992,2 54063  53.2180 148.2378 0001652  63.8103 296.3059 15.08835033 12314,6917.896,95.438,540.903,538.618,0.0
54063.0,STARLINK-5225,PAYLOAD,2023-01-05 17:52:30,15.08841683,0.0001883,53.2171,146.7519,67.2699,292.8492,3.8123e-05,3.19e-06,0.0,0 STARLINK-5225,1 54063U 22136N   23005.74479985  .00000319  00000-0  38123-4 0  9999,2 54063  53.2171 146.7519 0001883  67.2699 292.8492 15.08841683 11889,6917.875,95.437,541.043,538.438,0.0
